#aV2007  5 25  0  0   .00000000      96 DD+AD WGS84 FIT  NGA
## 1428 432000.00000000   900.00000000 54245  .0000000000000
+   30     1  2  3  4  5  6  7  8  9 10 11 12 13 14 16 17 18
+         19 20 21 22 23 24 25 26 27 28 29 30 31  0  0  0  0
+          0  0  0  0  0  0  0  0  0  0  0  0  0  0  0  0  0
+          0  0  0  0  0  0  0  0  0  0  0  0  0  0  0  0  0
+          0  0  0  0  0  0  0  0  0  0  0  0  0  0  0  0  0
++         0  0  0  0  0  0  0  0  0  0  0  0  0  0  0  0  0
++         0  0  0  0  0  0  0  0  0  0  0  0  0  0  0  0  0
++         0  0  0  0  0  0  0  0  0  0  0  0  0  0  0  0  0
++         0  0  0  0  0  0  0  0  0  0  0  0  0  0  0  0  0
++         0  0  0  0  0  0  0  0  0  0  0  0  0  0  0  0  0
%c cc cc ccc ccc cccc cccc cccc cccc ccccc ccccc ccccc ccccc
%c cc cc ccc ccc cccc cccc cccc cccc ccccc ccccc ccccc ccccc
%f  0.0000000  0.000000000  0.00000000000  0.000000000000000
%f  0.0000000  0.000000000  0.00000000000  0.000000000000000
%i    0    0    0    0      0      0      0      0         0
%i    0    0    0    0      0      0      0      0         0
/*      NGA, ST. LOUIS,MO.                                  
/*   EPHEMERIS COMPUTED FROM  3 DAYS OF DATA                
/* CCCCCCCCCCCCCCCCCCCCCCCCCCCCCCCCCCCCCCCCCCCCCCCCCCCCCCCCC
/* CCCCCCCCCCCCCCCCCCCCCCCCCCCCCCCCCCCCCCCCCCCCCCCCCCCCCCCCC
*  2007  5 25  4 45   .00000000                                                 
P  1  18583.299872   9174.626120 -16436.790107    130.162232                    
V  1  10260.015875  18574.239111  21635.943020       .025885                    
P  2 -16970.885467   1629.623900 -20510.952725    109.112111                    
V  2   9604.707960 -23854.937604 -10229.342894       .028697                    
P  3  20027.952455   3582.664857  17033.432380     62.384395                    
V  3  12736.643841  18093.964518 -18219.835687       .056116                    
P  4 -12101.537455 -10292.714045 -21309.167995     10.744461                    
V  4  12272.405253 -24069.299850   5024.630920      -.004423                    
P  5 -13992.491203  15088.431952 -16946.898443     -9.991110                    
V  5 -21246.837025   1588.088229  19378.604394      -.170198                    
P  6   2082.806589  21448.752809 -15308.891959    194.123252                    
V  6 -14142.292524 -14212.014075 -21610.639651       .125021                    
P  7   6171.623383  22393.633170 -12472.954921    287.827659                    
V  7 -12723.704326 -10911.998018 -25253.740314      -.175803                    
P  8  -3211.834693 -19395.438385  17527.977952   -108.413530                    
V  8  11890.494841 -19304.548074 -19484.190263      -.013024                    
P  9 -14634.800316  20138.711197   8332.730292     71.804465                    
V  9   1866.146037 -11643.836932  29558.784734       .017601                    
P 10 -26685.386611    651.340303  -1623.349243    102.357715                    
V 10   1744.812334  -2400.397766 -31636.680112       .005287                    
P 11  12508.812335 -21836.662535   7922.136624     16.754302                    
V 11   1887.815837  11289.847915  28055.640655       .010273                    
P 12 -18582.213796  11949.205752 -14589.466641    -45.407368                    
V 12 -18857.971243   -414.655009  23561.901767      -.006844                    
P 13  -3338.546406 -22185.744139 -14352.375689    175.453397                    
V 13  10888.046761  14351.176564 -24857.040452       .034374                    
P 14  16373.587822  20737.811752  -3006.137865     21.724629                    
V 14    635.595548   4273.887727  32005.188296       .017508                    
P 16  25448.857305   3047.897051  -7174.089837    150.465309                    
V 16  -8966.970229   3181.328896 -29946.072619       .029334                    
P 17 -15513.596005 -21639.185857   -548.266279     67.013722                    
V 17   1849.874512  -2153.149051  31633.618275      -.013541                    
P 18   2651.199568  15303.203541  21696.886559   -249.096618                    
V 18 -27202.388342   1407.239781   2010.651452       .009012                    
P 19  14589.498286  -5351.239930  21650.853889     36.957947                    
V 19  13993.632757  23385.274567  -3553.468756       .033355                    
P 20  17495.264765 -12828.163264 -15409.603041    -24.934003                    
V 20  19527.334221    152.622050  22233.974148      -.003778                    
P 21  -2731.261803  23685.422681  11186.786228     77.245172                    
V 21  -9423.142973  11251.485654 -26980.169412       .004153                    
P 22  15261.866601  12287.717216  18097.533064    183.597346                    
V 22 -22603.981247   2637.411064  17384.768806       .016758                    
P 23   5760.900747 -16057.891676 -20385.788932    168.778253                    
V 23  15631.682538  20456.286282 -11942.708231       .027192                    
P 24 -12458.086030  23637.567822    -19.609437      2.468343                    
V 24  -2275.234105  -1502.006619 -31466.469112       .027437                    
P 25   9612.960590 -24826.652336  -1173.465768    274.464908                    
V 25   1910.387888   2734.384965 -31564.239504       .249984                    
P 26 -15546.836729   1438.042708  21148.000759   -212.723876                    
V 26 -14885.501726 -23356.942943  -8617.358408      -.208909                    
P 27   1474.737474 -24378.525644  10782.655969    112.706974                    
V 27   6883.839260 -11077.460569 -27878.130083       .022534                    
P 28 -11719.988905 -13337.259922  20194.983411       .418458                    
V 28  24684.872516  -2542.270069  12523.438285      -.007758                    
P 29 -17710.321206  -2295.963856  19990.844506      3.062040                    
V 29 -13751.299597 -20578.489681 -14335.433294       .003694                    
P 30  -7441.051927  15743.795779 -20332.200158     34.760986                    
V 30 -25162.460678   2075.183380  11098.048936       .011346                    
P 31  12180.998837   9318.266677 -21481.794037     19.115390                    
V 31 -11904.071435  25067.219822   4156.941605      -.005346                    
EOF
